{
  "generated_at": "2026-07-13T07:11:34Z",
  "source": "CelesTrak SATCAT gp.php?GROUP=active (HEAD cache, no fetch)",
  "schema_version": "1.0",
  "records": [
    {
      "name": "TIANMU-1 04",
      "norad_id": 55974,
      "intl_designator": "23039-261",
      "line1": "1 55974U 23039B   26186.59014366  .00016596  00000+0  31409-3 0  9990",
      "line2": "2 55974  97.5179   0.4422 0003854  46.1919 313.9649 15.48455479183696",
      "category": "weather"
    },
    {
      "name": "TIANMU-1 05",
      "norad_id": 55975,
      "intl_designator": "23039-261",
      "line1": "1 55975U 23039C   26186.65419620  .00015513  00000+0  30087-3 0  9999",
      "line2": "2 55975  97.5226   0.9616 0003633  70.8519 289.3124 15.47764292183672",
      "category": "weather"
    },
    {
      "name": "TIANMU-1 06",
      "norad_id": 55976,
      "intl_designator": "23039-261",
      "line1": "1 55976U 23039D   26186.59469410  .00016646  00000+0  31614-3 0  9990",
      "line2": "2 55976  97.5232   1.5542 0003834  64.9622 295.2026 15.48354195183694",
      "category": "weather"
    },
    {
      "name": "TIANMU-1 07",
      "norad_id": 57399,
      "intl_designator": "23101-261",
      "line1": "1 57399U 23101A   26186.60992468  .00007654  00000+0  26576-3 0  9997",
      "line2": "2 57399  97.2578 236.8564 0004209  84.3079 275.8642 15.30035513164464",
      "category": "weather"
    },
    {
      "name": "TIANMU-1 08",
      "norad_id": 57400,
      "intl_designator": "23101-261",
      "line1": "1 57400U 23101B   26186.57651610  .00007254  00000+0  25193-3 0  9997",
      "line2": "2 57400  97.2566 236.5917 0005332  71.1172 289.0647 15.30039781164451",
      "category": "weather"
    },
    {
      "name": "TIANMU-1 09",
      "norad_id": 57401,
      "intl_designator": "23101-261",
      "line1": "1 57401U 23101C   26186.62492311  .00007780  00000+0  26970-3 0  9993",
      "line2": "2 57401  97.2525 236.0454 0004791  86.0006 274.1782 15.30078932164464",
      "category": "weather"
    },
    {
      "name": "TIANMU-1 10",
      "norad_id": 57402,
      "intl_designator": "23101-261",
      "line1": "1 57402U 23101D   26186.59290314  .00007352  00000+0  25517-3 0  9990",
      "line2": "2 57402  97.2604 237.0835 0006262  79.5273 280.6674 15.30051913164456",
      "category": "weather"
    },
    {
      "name": "TIANMU-1 11",
      "norad_id": 58645,
      "intl_designator": "23205-261",
      "line1": "1 58645U 23205A   26186.59745823  .00006838  00000+0  25910-3 0  9990",
      "line2": "2 58645  97.3443 207.8666 0006965 305.3511  54.7077 15.27195043140337",
      "category": "weather"
    },
    {
      "name": "TIANMU-1 12",
      "norad_id": 58646,
      "intl_designator": "23205-261",
      "line1": "1 58646U 23205B   26186.56878847  .00006310  00000+0  24062-3 0  9993",
      "line2": "2 58646  97.3431 207.5893 0005466 279.6233  80.4388 15.27023525140317",
      "category": "weather"
    },
    {
      "name": "TIANMU-1 13",
      "norad_id": 58647,
      "intl_designator": "23205-261",
      "line1": "1 58647U 23205C   26186.60218387  .00007138  00000+0  27187-3 0  9996",
      "line2": "2 58647  97.3459 207.8987 0005048 255.1704 104.8976 15.27016934140313",
      "category": "weather"
    }
  ]
}