{
 "generated_at": "2026-07-06T09:00:32Z",
 "sources": [
  {
   "name": "CelesTrak",
   "url": "https://celestrak.org/NORAD/elements/",
   "license": "frei verfügbar; Attribution. Ursprünglich USSPACECOM/Space-Track."
  },
  {
   "name": "GCAT (J. McDowell, planet4589.org)",
   "url": "https://planet4589.org/space/gcat/",
   "license": "CC-BY 4.0"
  }
 ],
 "satellites": [
  {
   "norad": 55974,
   "name": "TIANMU-1 04",
   "intl": "2023-039B",
   "group": "weather",
   "gcat": {
    "class": "B",
    "category": "MET",
    "owner": "TIANMU",
    "state": "CN"
   },
   "omm": {
    "OBJECT_NAME": "TIANMU-1 04",
    "OBJECT_ID": "2023-039B",
    "EPOCH": "2026-07-05T14:09:48.412224",
    "MEAN_MOTION": 15.48455479,
    "ECCENTRICITY": 0.00038541,
    "INCLINATION": 97.5179,
    "RA_OF_ASC_NODE": 0.4422,
    "ARG_OF_PERICENTER": 46.1919,
    "MEAN_ANOMALY": 313.9649,
    "EPHEMERIS_TYPE": 0,
    "CLASSIFICATION_TYPE": "U",
    "NORAD_CAT_ID": 55974,
    "ELEMENT_SET_NO": 999,
    "REV_AT_EPOCH": 18369,
    "BSTAR": 0.0003140879,
    "MEAN_MOTION_DOT": 0.00016596,
    "MEAN_MOTION_DDOT": 0
   }
  },
  {
   "norad": 55975,
   "name": "TIANMU-1 05",
   "intl": "2023-039C",
   "group": "weather",
   "gcat": {
    "class": "B",
    "category": "MET",
    "owner": "TIANMU",
    "state": "CN"
   },
   "omm": {
    "OBJECT_NAME": "TIANMU-1 05",
    "OBJECT_ID": "2023-039C",
    "EPOCH": "2026-07-05T15:42:02.551680",
    "MEAN_MOTION": 15.47764292,
    "ECCENTRICITY": 0.00036336,
    "INCLINATION": 97.5226,
    "RA_OF_ASC_NODE": 0.9616,
    "ARG_OF_PERICENTER": 70.8519,
    "MEAN_ANOMALY": 289.3124,
    "EPHEMERIS_TYPE": 0,
    "CLASSIFICATION_TYPE": "U",
    "NORAD_CAT_ID": 55975,
    "ELEMENT_SET_NO": 999,
    "REV_AT_EPOCH": 18367,
    "BSTAR": 0.00030086505,
    "MEAN_MOTION_DOT": 0.00015513,
    "MEAN_MOTION_DDOT": 0
   }
  },
  {
   "norad": 55976,
   "name": "TIANMU-1 06",
   "intl": "2023-039D",
   "group": "weather",
   "gcat": {
    "class": "B",
    "category": "MET",
    "owner": "TIANMU",
    "state": "CN"
   },
   "omm": {
    "OBJECT_NAME": "TIANMU-1 06",
    "OBJECT_ID": "2023-039D",
    "EPOCH": "2026-07-05T14:16:21.570240",
    "MEAN_MOTION": 15.48354195,
    "ECCENTRICITY": 0.00038349,
    "INCLINATION": 97.5232,
    "RA_OF_ASC_NODE": 1.5542,
    "ARG_OF_PERICENTER": 64.9622,
    "MEAN_ANOMALY": 295.2026,
    "EPHEMERIS_TYPE": 0,
    "CLASSIFICATION_TYPE": "U",
    "NORAD_CAT_ID": 55976,
    "ELEMENT_SET_NO": 999,
    "REV_AT_EPOCH": 18369,
    "BSTAR": 0.00031613987,
    "MEAN_MOTION_DOT": 0.00016646,
    "MEAN_MOTION_DDOT": 0
   }
  },
  {
   "norad": 57399,
   "name": "TIANMU-1 07",
   "intl": "2023-101A",
   "group": "weather",
   "gcat": {
    "class": "B",
    "category": "MET",
    "owner": "TIANMU",
    "state": "CN"
   },
   "omm": {
    "OBJECT_NAME": "TIANMU-1 07",
    "OBJECT_ID": "2023-101A",
    "EPOCH": "2026-07-05T14:38:17.492352",
    "MEAN_MOTION": 15.30035513,
    "ECCENTRICITY": 0.00042094,
    "INCLINATION": 97.2578,
    "RA_OF_ASC_NODE": 236.8564,
    "ARG_OF_PERICENTER": 84.3079,
    "MEAN_ANOMALY": 275.8642,
    "EPHEMERIS_TYPE": 0,
    "CLASSIFICATION_TYPE": "U",
    "NORAD_CAT_ID": 57399,
    "ELEMENT_SET_NO": 999,
    "REV_AT_EPOCH": 16446,
    "BSTAR": 0.00026575723,
    "MEAN_MOTION_DOT": 0.00007654,
    "MEAN_MOTION_DDOT": 0
   }
  },
  {
   "norad": 57400,
   "name": "TIANMU-1 08",
   "intl": "2023-101B",
   "group": "weather",
   "gcat": {
    "class": "B",
    "category": "MET",
    "owner": "TIANMU",
    "state": "CN"
   },
   "omm": {
    "OBJECT_NAME": "TIANMU-1 08",
    "OBJECT_ID": "2023-101B",
    "EPOCH": "2026-07-05T13:50:10.991040",
    "MEAN_MOTION": 15.30039781,
    "ECCENTRICITY": 0.00053328,
    "INCLINATION": 97.2566,
    "RA_OF_ASC_NODE": 236.5917,
    "ARG_OF_PERICENTER": 71.1172,
    "MEAN_ANOMALY": 289.0647,
    "EPHEMERIS_TYPE": 0,
    "CLASSIFICATION_TYPE": "U",
    "NORAD_CAT_ID": 57400,
    "ELEMENT_SET_NO": 999,
    "REV_AT_EPOCH": 16445,
    "BSTAR": 0.00025192879,
    "MEAN_MOTION_DOT": 0.00007254,
    "MEAN_MOTION_DDOT": 0
   }
  },
  {
   "norad": 57401,
   "name": "TIANMU-1 09",
   "intl": "2023-101C",
   "group": "weather",
   "gcat": {
    "class": "B",
    "category": "MET",
    "owner": "TIANMU",
    "state": "CN"
   },
   "omm": {
    "OBJECT_NAME": "TIANMU-1 09",
    "OBJECT_ID": "2023-101C",
    "EPOCH": "2026-07-05T14:59:53.356704",
    "MEAN_MOTION": 15.30078932,
    "ECCENTRICITY": 0.00047916,
    "INCLINATION": 97.2525,
    "RA_OF_ASC_NODE": 236.0454,
    "ARG_OF_PERICENTER": 86.0006,
    "MEAN_ANOMALY": 274.1782,
    "EPHEMERIS_TYPE": 0,
    "CLASSIFICATION_TYPE": "U",
    "NORAD_CAT_ID": 57401,
    "ELEMENT_SET_NO": 999,
    "REV_AT_EPOCH": 16446,
    "BSTAR": 0.00026969913,
    "MEAN_MOTION_DOT": 0.0000778,
    "MEAN_MOTION_DDOT": 0
   }
  },
  {
   "norad": 57402,
   "name": "TIANMU-1 10",
   "intl": "2023-101D",
   "group": "weather",
   "gcat": {
    "class": "B",
    "category": "MET",
    "owner": "TIANMU",
    "state": "CN"
   },
   "omm": {
    "OBJECT_NAME": "TIANMU-1 10",
    "OBJECT_ID": "2023-101D",
    "EPOCH": "2026-07-05T14:13:46.831296",
    "MEAN_MOTION": 15.30051913,
    "ECCENTRICITY": 0.0006262,
    "INCLINATION": 97.2604,
    "RA_OF_ASC_NODE": 237.0835,
    "ARG_OF_PERICENTER": 79.5273,
    "MEAN_ANOMALY": 280.6674,
    "EPHEMERIS_TYPE": 0,
    "CLASSIFICATION_TYPE": "U",
    "NORAD_CAT_ID": 57402,
    "ELEMENT_SET_NO": 999,
    "REV_AT_EPOCH": 16445,
    "BSTAR": 0.00025517229,
    "MEAN_MOTION_DOT": 0.00007352,
    "MEAN_MOTION_DDOT": 0
   }
  },
  {
   "norad": 58645,
   "name": "TIANMU-1 11",
   "intl": "2023-205A",
   "group": "weather",
   "gcat": {
    "class": "B",
    "category": "MET",
    "owner": "TIANMU",
    "state": "CN"
   },
   "omm": {
    "OBJECT_NAME": "TIANMU-1 11",
    "OBJECT_ID": "2023-205A",
    "EPOCH": "2026-07-05T14:20:20.391072",
    "MEAN_MOTION": 15.27195043,
    "ECCENTRICITY": 0.0006965,
    "INCLINATION": 97.3443,
    "RA_OF_ASC_NODE": 207.8666,
    "ARG_OF_PERICENTER": 305.3511,
    "MEAN_ANOMALY": 54.7077,
    "EPHEMERIS_TYPE": 0,
    "CLASSIFICATION_TYPE": "U",
    "NORAD_CAT_ID": 58645,
    "ELEMENT_SET_NO": 999,
    "REV_AT_EPOCH": 14033,
    "BSTAR": 0.00025910087,
    "MEAN_MOTION_DOT": 0.00006838,
    "MEAN_MOTION_DDOT": 0
   }
  },
  {
   "norad": 58646,
   "name": "TIANMU-1 12",
   "intl": "2023-205B",
   "group": "weather",
   "gcat": {
    "class": "B",
    "category": "MET",
    "owner": "TIANMU",
    "state": "CN"
   },
   "omm": {
    "OBJECT_NAME": "TIANMU-1 12",
    "OBJECT_ID": "2023-205B",
    "EPOCH": "2026-07-05T13:39:03.323808",
    "MEAN_MOTION": 15.27023525,
    "ECCENTRICITY": 0.00054667,
    "INCLINATION": 97.3431,
    "RA_OF_ASC_NODE": 207.5893,
    "ARG_OF_PERICENTER": 279.6233,
    "MEAN_ANOMALY": 80.4388,
    "EPHEMERIS_TYPE": 0,
    "CLASSIFICATION_TYPE": "U",
    "NORAD_CAT_ID": 58646,
    "ELEMENT_SET_NO": 999,
    "REV_AT_EPOCH": 14031,
    "BSTAR": 0.00024062045,
    "MEAN_MOTION_DOT": 0.0000631,
    "MEAN_MOTION_DDOT": 0
   }
  },
  {
   "norad": 58647,
   "name": "TIANMU-1 13",
   "intl": "2023-205C",
   "group": "weather",
   "gcat": {
    "class": "B",
    "category": "MET",
    "owner": "TIANMU",
    "state": "CN"
   },
   "omm": {
    "OBJECT_NAME": "TIANMU-1 13",
    "OBJECT_ID": "2023-205C",
    "EPOCH": "2026-07-05T14:27:08.686368",
    "MEAN_MOTION": 15.27016934,
    "ECCENTRICITY": 0.00050484,
    "INCLINATION": 97.3459,
    "RA_OF_ASC_NODE": 207.8987,
    "ARG_OF_PERICENTER": 255.1704,
    "MEAN_ANOMALY": 104.8976,
    "EPHEMERIS_TYPE": 0,
    "CLASSIFICATION_TYPE": "U",
    "NORAD_CAT_ID": 58647,
    "ELEMENT_SET_NO": 999,
    "REV_AT_EPOCH": 14031,
    "BSTAR": 0.00027186827,
    "MEAN_MOTION_DOT": 0.00007138,
    "MEAN_MOTION_DDOT": 0
   }
  }
 ]
}
